[{"OBJECT_NAME":"OBJECT A","OBJECT_ID":"2024-018A","EPOCH":"2026-03-09T23:31:34.722336","MEAN_MOTION":14.39019523,"ECCENTRICITY":0.04318583,"INCLINATION":58.6872,"RA_OF_ASC_NODE":217.3493,"ARG_OF_PERICENTER":349.6639,"MEAN_ANOMALY":9.5713,"EPHEMERIS_TYPE":0,"CLASSIFICATION_TYPE":"U","NORAD_CAT_ID":58849,"ELEMENT_SET_NO":999,"REV_AT_EPOCH":11089,"BSTAR":0.00018648837,"MEAN_MOTION_DOT":1.516e-5,"MEAN_MOTION_DDOT":0},{"OBJECT_NAME":"STARLINK-35564","OBJECT_ID":"2026-005S","EPOCH":"2026-03-09T11:31:06.388320","MEAN_MOTION":15.27590548,"ECCENTRICITY":7.417e-5,"INCLINATION":42.9974,"RA_OF_ASC_NODE":239.2264,"ARG_OF_PERICENTER":224.6993,"MEAN_ANOMALY":135.3799,"EPHEMERIS_TYPE":0,"CLASSIFICATION_TYPE":"U","NORAD_CAT_ID":67420,"ELEMENT_SET_NO":999,"REV_AT_EPOCH":866,"BSTAR":0.00091526055,"MEAN_MOTION_DOT":0.00025017,"MEAN_MOTION_DDOT":0}]
